0 COSMOS 2251 DEB
1 38215U 93036BTF 13282.08322671  .00007763  00000-0  25054-2 0  3114
2 38215 074.0377 146.6199 0019563 209.9018 302.5145 14.39195483 97719
0 COSMOS 2251 DEB
1 38215U 93036BTF 13285.59881248  .00004623  00000-0  14947-2 0  3125
2 38215 074.0380 140.1390 0021046 204.7731 155.1699 14.39229561 98216
0 COSMOS 2251 DEB
1 38215U 93036BTF 13285.60482525  .00005829  00000-0  18824-2 0  3130
2 38215 074.0382 140.1223 0019402 201.5959 189.5077 14.39235891 98217
0 COSMOS 2251 DEB
1 38215U 93036BTF 13286.65231753  .00005697  00000-0  18395-2 0  3148
2 38215 074.0380 138.1895 0019369 199.4921 216.7601 14.39246228 98361
0 COSMOS 2251 DEB
1 38215U 93036BTF 13287.54999473  .00007818  00000-0  25202-2 0  3150
2 38215 074.0385 136.5324 0019354 197.5237 187.9900 14.39256403 98499
0 COSMOS 2251 DEB
1 38215U 93036BTF 13289.56649314  .00008544  00000-0  27512-2 0  3164
2 38215 074.0363 132.8124 0019212 192.8822 196.6800 14.39288059 98783
0 COSMOS 2251 DEB
1 38215U 93036BTF 13291.51195888  .00007686  00000-0  24750-2 0  3172
2 38215 074.0354 129.2213 0019121 188.4228 197.4769 14.39314169 99069
0 COSMOS 2251 DEB
1 38215U 93036BTF 13292.55558926  .00007602  00000-0  24472-2 0  3183
2 38215 074.0362 127.2948 0019095 186.4395 204.9251 14.39329502 99218
0 COSMOS 2251 DEB
1 38215U 93036BTF 13293.97085250  .00008749  00000-0  28139-2 0  3193
2 38215 074.0364 124.6825 0019044 183.5542 338.2173 14.39346603 99429
0 COSMOS 2251 DEB
1 38215U 93036BTF 13295.54396532  .00009675  00000-0  31090-2 0  3207
2 38215 074.0368 121.7788 0018906 180.3471 209.5320 14.39370667 99646
